line1,line2,validFromUtcTime
1 00000U 00000E   26001.00000000  .00000000  00000-0  27772-4 0    01,2 00000  88.8751  60.3318 0010095 270.1823  29.8922 13.55292453    09,2026-01-01T00:00:00Z
1 00000U 00000E   26002.00000000  .00000000  00000-0  27772-4 0    02,2 00000  88.8751  60.2174 0010095 267.2724 228.9435 13.55292492    09,2026-01-02T00:00:00Z
